NORAD_CAT_ID,OBJECT_NAME,OBJECT_TYPE,EPOCH,MEAN_MOTION,ECCENTRICITY,INCLINATION,RA_OF_ASC_NODE,ARG_OF_PERICENTER,MEAN_ANOMALY,BSTAR,MEAN_MOTION_DOT,MEAN_MOTION_DDOT,TLE_LINE0,TLE_LINE1,TLE_LINE2,SEMIMAJOR_AXIS,PERIOD,APOGEE,PERIGEE,DECAYED
55280.0,STARLINK-5331,PAYLOAD,2024-07-10 20:57:52,14.98332051,0.0002708,70.0004,134.3348,271.6798,88.4051,1.8047e-05,1.22e-06,0.0,0 STARLINK-5331,1 55280U 23010M   24192.87352058  .00000122  00000-0  18047-4 0  9991,2 55280  70.0004 134.3348 0002708 271.6798  88.4051 14.98332051 81579,6950.187,96.107,573.934,570.169,0.0
55280.0,STARLINK-5331,PAYLOAD,2024-07-10 22:34:00,14.98332038,0.0002712,70.0005,134.1665,271.6564,88.4284,1.8078e-05,1.23e-06,0.0,0 STARLINK-5331,1 55280U 23010M   24192.94028049  .00000123  00000-0  18078-4 0  9994,2 55280  70.0005 134.1665 0002712 271.6564  88.4284 14.98332038 81894,6950.187,96.107,573.936,570.167,0.0
55280.0,STARLINK-5331,PAYLOAD,2024-07-11 06:34:40,14.98335295,0.0002671,70.0006,133.3251,271.3026,88.7827,5.5807e-05,5.73e-06,0.0,0 STARLINK-5331,1 55280U 23010M   24193.27407693  .00000573  00000-0  55807-4 0  9997,2 55280  70.0006 133.3251 0002671 271.3026  88.7827 14.98335295 81941,6950.177,96.107,573.898,570.185,0.0
55280.0,STARLINK-5331,PAYLOAD,2024-07-12 05:00:33,14.98328453,0.0002674,70.0006,130.9694,265.4581,94.6272,1.4698e-05,8.2e-07,0.0,0 STARLINK-5331,1 55280U 23010M   24194.20872258  .00000082  00000-0  14698-4 0  9992,2 55280  70.0006 130.9694 0002674 265.4581  94.6272 14.98328453 81777,6950.198,96.107,573.921,570.204,0.0
55280.0,STARLINK-5331,PAYLOAD,2024-07-12 13:01:13,14.98329365,0.0002666,70.0007,130.1278,265.9328,94.1526,3.2341e-05,2.93e-06,0.0,0 STARLINK-5331,1 55280U 23010M   24194.54252176  .00000293  00000-0  32341-4 0  9999,2 55280  70.0007 130.1278 0002666 265.9328  94.1526 14.98329365 82134,6950.195,96.107,573.913,570.207,0.0
55280.0,STARLINK-5331,PAYLOAD,2024-07-12 22:38:02,14.98329789,0.000279,70.0005,129.1178,267.7286,92.3553,7.9236e-06,2e-08,0.0,0 STARLINK-5331,1 55280U 23010M   24194.94308189  .00000002  00000-0  79236-5 0  9992,2 55280  70.0005 129.1178 0002790 267.7286  92.3553 14.98329789 82196,6950.194,96.107,573.998,570.119,0.0
55280.0,STARLINK-5331,PAYLOAD,2024-07-13 05:02:34,14.98334243,0.0002705,70.0008,128.4447,267.069,93.0159,1.7924e-05,1.21e-06,0.0,0 STARLINK-5331,1 55280U 23010M   24195.21011849  .00000121  00000-0  17924-4 0  9994,2 55280  70.0008 128.4447 0002705 267.0690  93.0159 14.98334243 81929,6950.18,96.107,573.925,570.165,0.0
55280.0,STARLINK-5331,PAYLOAD,2024-07-13 13:03:14,14.983203,0.0002716,70.0007,127.6033,269.2914,90.7934,0.00022362,2.576e-05,0.0,0 STARLINK-5331,1 55280U 23010M   24195.54392296  .00002576  00000-0  22362-3 0  9995,2 55280  70.0007 127.6033 0002716 269.2914  90.7934 14.98320300 81974,6950.223,96.108,573.976,570.2,0.0
55280.0,STARLINK-5331,PAYLOAD,2024-07-13 22:40:03,14.98326854,0.0002806,70.0006,126.5934,265.1829,94.901,7.0714e-05,7.51e-06,0.0,0 STARLINK-5331,1 55280U 23010M   24195.94448107  .00000751  00000-0  70714-4 0  9990,2 55280  70.0006 126.5934 0002806 265.1829  94.9010 14.98326854 82344,6950.203,96.107,574.018,570.117,0.0
55280.0,STARLINK-5331,PAYLOAD,2024-07-14 05:04:35,14.98330251,0.000284,70.0008,125.9203,268.3758,91.7076,0.00012823,1.437e-05,0.0,0 STARLINK-5331,1 55280U 23010M   24196.21151776  .00001437  00000-0  12823-3 0  9992,2 55280  70.0008 125.9203 0002840 268.3758  91.7076 14.98330251 82075,6950.192,96.107,574.031,570.083,0.0
55280.0,STARLINK-5331,PAYLOAD,2024-07-14 13:05:15,14.98330639,0.0002843,70.0007,125.0783,268.6263,91.457,2.3258e-05,1.85e-06,0.0,0 STARLINK-5331,1 55280U 23010M   24196.54531954  .00000185  00000-0  23258-4 0  9992,2 55280  70.0007 125.0783 0002843 268.6263  91.4570 14.98330639 82431,6950.191,96.107,574.032,570.08,0.0
55280.0,STARLINK-5331,PAYLOAD,2024-07-14 22:42:03,14.98333765,0.0002833,70.0006,124.0683,271.8895,88.194,2.9056e-05,2.54e-06,0.0,0 STARLINK-5331,1 55280U 23010M   24196.94587690  .00000254  00000-0  29056-4 0  9993,2 55280  70.0006 124.0683 0002833 271.8895  88.1940 14.98333765 82497,6950.181,96.107,574.015,570.077,0.0
55280.0,STARLINK-5331,PAYLOAD,2024-07-15 05:06:35,14.9833835,0.0002796,70.0009,123.3942,268.631,91.4528,0.00010084,1.111e-05,0.0,0 STARLINK-5331,1 55280U 23010M   24197.21291105  .00001111  00000-0  10084-3 0  9990,2 55280  70.0009 123.3942 0002796 268.6310  91.4528 14.98338350 82229,6950.167,96.106,573.975,570.089,0.0
55280.0,STARLINK-5331,PAYLOAD,2024-07-15 21:07:56,14.98326141,0.0002836,70.0008,121.711,270.1413,89.9421,-1.8686e-05,-3.16e-06,0.0,0 STARLINK-5331,1 55280U 23010M   24197.88052031 -.00000316  00000-0 -18686-4 0  9991,2 55280  70.0008 121.7110 0002836 270.1413  89.9421 14.98326141 82324,6950.205,96.107,574.041,570.099,0.0
55280.0,STARLINK-5331,PAYLOAD,2024-07-15 22:44:05,14.98325367,0.0002862,70.001,121.5428,270.202,89.8811,-1.3099e-05,-2.49e-06,0.0,0 STARLINK-5331,1 55280U 23010M   24197.94728071 -.00000249  00000-0 -13099-4 0  9990,2 55280  70.0010 121.5428 0002862 270.2020  89.8811 14.98325367 82647,6950.207,96.107,574.061,570.083,0.0
55280.0,STARLINK-5331,PAYLOAD,2024-07-16 05:08:37,14.98329571,0.0002734,70.0014,120.8719,266.7185,93.3662,-2.4893e-05,-3.9e-06,0.0,0 STARLINK-5331,1 55280U 23010M   24198.21431867 -.00000390  00000-0 -24893-4 0  9996,2 55280  70.0014 120.8719 0002734 266.7185  93.3662 14.98329571 82685,6950.194,96.107,573.959,570.159,0.0
55280.0,STARLINK-5331,PAYLOAD,2024-07-16 21:09:57,14.98334919,0.0002989,70.0006,119.1869,270.1987,89.883,2.6683e-05,2.25e-06,0.0,0 STARLINK-5331,1 55280U 23010M   24198.88191245  .00000225  00000-0  26683-4 0  9996,2 55280  70.0006 119.1869 0002989 270.1987  89.8830 14.98334919 82470,6950.178,96.107,574.12,569.965,0.0
55280.0,STARLINK-5331,PAYLOAD,2024-07-17 05:10:36,14.98344138,0.0002917,70.0007,118.3459,267.6877,92.3948,0.00014808,1.675e-05,0.0,0 STARLINK-5331,1 55280U 23010M   24199.21570178  .00001675  00000-0  14808-3 0  9995,2 55280  70.0007 118.3459 0002917 267.6877  92.3948 14.98344138 82526,6950.149,96.106,574.042,569.987,0.0
55280.0,STARLINK-5331,PAYLOAD,2024-07-17 11:35:09,14.98331804,0.0002889,70.0021,117.6715,272.9892,87.0936,8.8557e-07,-8.2e-07,0.0,0 STARLINK-5331,1 55280U 23010M   24199.48275272 -.00000082  00000-0  88557-6 0  9998,2 55280  70.0021 117.6715 0002889 272.9892  87.0936 14.98331804 82561,6950.187,96.107,574.06,570.044,0.0
55280.0,STARLINK-5331,PAYLOAD,2024-07-17 21:11:58,14.98323199,0.0002547,70.001,116.6636,269.2535,90.8332,2.6051e-06,-6.2e-07,0.0,0 STARLINK-5331,1 55280U 23010M   24199.88332005 -.00000062  00000-0  26051-5 0  9998,2 55280  70.0010 116.6636 0002547 269.2535  90.8332 14.98323199 82621,6950.214,96.107,573.849,570.309,0.0
55280.0,STARLINK-5331,PAYLOAD,2024-07-17 22:48:07,14.98320773,0.0002621,70.0012,116.4953,269.3889,90.697,-2.2823e-05,-3.65e-06,0.0,0 STARLINK-5331,1 55280U 23010M   24199.95008238 -.00000365  00000-0 -22823-4 0  9993,2 55280  70.0012 116.4953 0002621 269.3889  90.6970 14.98320773 82945,6950.221,96.108,573.908,570.265,0.0
55280.0,STARLINK-5331,PAYLOAD,2024-07-18 11:37:11,14.98325538,0.0002664,70.0012,115.1482,268.9757,91.1096,-1.7462e-05,-3.01e-06,0.0,0 STARLINK-5331,1 55280U 23010M   24200.48416075 -.00000301  00000-0 -17462-4 0  9999,2 55280  70.0012 115.1482 0002664 268.9757  91.1096 14.98325538 83023,6950.207,96.107,573.923,570.22,0.0
55280.0,STARLINK-5331,PAYLOAD,2024-07-18 21:13:58,14.9833786,0.0002886,70.0007,114.1369,269.2784,90.8044,6.47e-05,6.79e-06,0.0,0 STARLINK-5331,1 55280U 23010M   24200.88470911  .00000679  00000-0  64700-4 0  9995,2 55280  70.0007 114.1369 0002886 269.2784  90.8044 14.98337860 82771,6950.169,96.106,574.039,570.028,0.0
55280.0,STARLINK-5331,PAYLOAD,2024-07-18 22:50:06,14.98339224,0.0002814,70.0006,113.9686,268.4673,91.6164,5.9198e-05,6.14e-06,0.0,0 STARLINK-5331,1 55280U 23010M   24200.95146832  .00000614  00000-0  59198-4 0  9999,2 55280  70.0006 113.9686 0002814 268.4673  91.6164 14.98339224 83092,6950.164,96.106,573.985,570.074,0.0
55280.0,STARLINK-5331,PAYLOAD,2024-07-19 03:38:30,14.98347345,0.0002794,70.0008,113.4642,265.4242,94.6598,0.0001675,1.907e-05,0.0,0 STARLINK-5331,1 55280U 23010M   24201.15173949  .00001907  00000-0  16750-3 0  9993,2 55280  70.0008 113.4642 0002794 265.4242  94.6598 14.98347345 82813,6950.139,96.106,573.946,570.062,0.0
55280.0,STARLINK-5331,PAYLOAD,2024-07-19 11:39:11,14.98339631,0.0002386,70.0019,112.6219,284.0879,76.0015,-4.957e-05,-6.84e-06,0.0,0 STARLINK-5331,1 55280U 23010M   24201.48554871 -.00000684  00000-0 -49570-4 0  9996,2 55280  70.0019 112.6219 0002386 284.0879  76.0015 14.98339631 82868,6950.163,96.106,573.686,570.37,0.0
55280.0,STARLINK-5331,PAYLOAD,2024-07-19 21:16:00,14.98321086,0.0002698,70.0002,111.6121,275.7713,84.3139,9.1395e-05,9.97e-06,0.0,0 STARLINK-5331,1 55280U 23010M   24201.88611678  .00000997  00000-0  91395-4 0  9996,2 55280  70.0002 111.6121 0002698 275.7713  84.3139 14.98321086 82922,6950.22,96.108,573.961,570.21,0.0
55280.0,STARLINK-5331,PAYLOAD,2024-07-19 22:52:08,14.9832161,0.0002962,70.0003,111.4441,272.8733,87.2087,9.5013e-05,1.041e-05,0.0,0 STARLINK-5331,1 55280U 23010M   24201.95287656  .00001041  00000-0  95013-4 0  9991,2 55280  70.0003 111.4441 0002962 272.8733  87.2087 14.98321610 83243,6950.219,96.108,574.142,570.025,0.0
55280.0,STARLINK-5331,PAYLOAD,2024-07-20 11:41:13,14.98325069,0.0002863,70.0007,110.097,272.653,87.4301,1.2392e-05,5.5e-07,0.0,0 STARLINK-5331,1 55280U 23010M   24202.48695830  .00000055  00000-0  12392-4 0  9990,2 55280  70.0007 110.0970 0002863 272.6530  87.4301 14.98325069 83324,6950.208,96.107,574.063,570.083,0.0
55280.0,STARLINK-5331,PAYLOAD,2024-07-20 21:18:01,14.98326742,0.0002889,70.0007,109.0879,271.8029,88.2799,-6.4901e-05,-8.67e-06,0.0,0 STARLINK-5331,1 55280U 23010M   24202.88752052 -.00000867  00000-0 -64901-4 0  9990,2 55280  70.0007 109.0879 0002889 271.8029  88.2799 14.98326742 83073,6950.203,96.107,574.076,570.06,0.0
